[{"OBJECT_NAME":"ONEWEB-0526","OBJECT_ID":"2022-138AH","EPOCH":"2026-03-09T17:21:04.156992","MEAN_MOTION":13.19725031,"ECCENTRICITY":0.00017638,"INCLINATION":87.9239,"RA_OF_ASC_NODE":324.7759,"ARG_OF_PERICENTER":83.2044,"MEAN_ANOMALY":276.9289,"EPHEMERIS_TYPE":0,"CLASSIFICATION_TYPE":"U","NORAD_CAT_ID":54144,"ELEMENT_SET_NO":999,"REV_AT_EPOCH":16368,"BSTAR":0.00029342197,"MEAN_MOTION_DOT":1.3e-6,"MEAN_MOTION_DDOT":0},{"OBJECT_NAME":"METEOR 3-2","OBJECT_ID":"1988-064A","EPOCH":"2026-03-09T23:05:53.953728","MEAN_MOTION":13.17278782,"ECCENTRICITY":0.00183381,"INCLINATION":82.543,"RA_OF_ASC_NODE":41.0373,"ARG_OF_PERICENTER":95.0105,"MEAN_ANOMALY":320.0575,"EPHEMERIS_TYPE":0,"CLASSIFICATION_TYPE":"U","NORAD_CAT_ID":19336,"ELEMENT_SET_NO":999,"REV_AT_EPOCH":80859,"BSTAR":-0.00028263501,"MEAN_MOTION_DOT":-9.7e-7,"MEAN_MOTION_DDOT":0}]
